NORAD_CAT_ID,OBJECT_NAME,OBJECT_TYPE,EPOCH,MEAN_MOTION,ECCENTRICITY,INCLINATION,RA_OF_ASC_NODE,ARG_OF_PERICENTER,MEAN_ANOMALY,BSTAR,MEAN_MOTION_DOT,MEAN_MOTION_DDOT,TLE_LINE0,TLE_LINE1,TLE_LINE2,SEMIMAJOR_AXIS,PERIOD,APOGEE,PERIGEE,DECAYED
49741.0,STARLINK-3244,PAYLOAD,2022-03-20 22:00:01,15.08858563,0.0001776,53.2187,177.4126,42.5568,124.194,-0.0013844,-0.00022265,0.0,0 STARLINK-3244,1 49741U 21115T   22079.91668981 -.00022265  00000-0 -13844-2 0  9994,2 49741  53.2187 177.4126 0001776  42.5568 124.1940 15.08858563 17774,6917.824000000001,95.436,540.9169999999998,538.46,0.0
49741.0,STARLINK-3244,PAYLOAD,2022-03-21 14:00:01,15.08861634,0.0001808,53.2188,174.4209,41.8124,148.0825,-0.0027201,-0.00043344,0.0,0 STARLINK-3244,1 49741U 21115T   22080.58334491 -.00043344  00000-0 -27201-2 0  9998,2 49741  53.2188 174.4209 0001808  41.8124 148.0825 15.08861634  3595,6917.814,95.436,540.93,538.429,0.0
49741.0,STARLINK-3244,PAYLOAD,2022-03-21 22:00:00,15.08861615,0.0001706999999999,53.2184,172.9236,41.5251,159.9717,-0.0046389,-0.00073408,0.0,0 STARLINK-3244,1 49741U 21115T   22080.91667824 -.00073408  00000-0 -46389-2 0  9996,2 49741  53.2184 172.9236 0001707  41.5251 159.9717 15.08861615 17922,6917.814,95.436,540.86,538.498,0.0
49741.0,STARLINK-3244,PAYLOAD,2022-03-22 14:00:01,15.088077900000002,0.0001843,53.2183,169.9321,42.7983,181.8572,0.00094523,0.00014774,0.0,0 STARLINK-3244,1 49741U 21115T   22081.58334491  .00014774  00000-0  94523-3 0  9994,2 49741  53.2183 169.9321 0001843  42.7983 181.8572 15.08807790 18027,6917.979,95.44,541.119,538.569,0.0
49741.0,STARLINK-3244,PAYLOAD,2022-03-22 22:00:01,15.08838835,0.0001729,53.2178,168.4347,43.8788,192.4021,-0.0016985,-0.00027217,0.0,0 STARLINK-3244,1 49741U 21115T   22081.91668981 -.00027217  00000-0 -16985-2 0  9998,2 49741  53.2178 168.4347 0001729  43.8788 192.4021 15.08838835  3600,6917.884,95.438,540.945,538.553,0.0
49741.0,STARLINK-3244,PAYLOAD,2022-03-23 14:00:01,15.08825489,0.0001864,53.2177,165.4434,43.369,216.0223,0.0015140999999999,0.00023882,0.0,0 STARLINK-3244,1 49741U 21115T   22082.58334491  .00023882  00000-0  15141-2 0  9993,2 49741  53.2177 165.4434 0001864  43.3690 216.0223 15.08825489  3619,6917.925,95.438,541.0790000000002,538.5,0.0
49741.0,STARLINK-3244,PAYLOAD,2022-03-23 22:00:00,15.08857964,0.000175,53.2173,163.9459,44.5305,226.4483,-0.0014550999999999,-0.00023383,0.0,0 STARLINK-3244,1 49741U 21115T   22082.91667824 -.00023383  00000-0 -14551-2 0  9991,2 49741  53.2173 163.9459 0001750  44.5305 226.4483 15.08857964 18235,6917.825,95.436,540.901,538.48,0.0
49741.0,STARLINK-3244,PAYLOAD,2022-03-24 14:00:01,15.08845589,0.0001859,53.2174,160.9544,42.119,252.083,-0.00074648,-0.00012151,0.0,0 STARLINK-3244,1 49741U 21115T   22083.58334491 -.00012151  00000-0 -74648-3 0  9991,2 49741  53.2174 160.9544 0001859  42.1190 252.0830 15.08845589  3587,6917.863,95.437,541.014,538.442,0.0
49741.0,STARLINK-3244,PAYLOAD,2022-03-24 22:00:00,15.08851083,0.0001720999999999,53.2172,159.4567,41.8198,263.9855,-0.0010757,-0.00017372,0.0,0 STARLINK-3244,1 49741U 21115T   22083.91667824 -.00017372  00000-0 -10757-2 0  9997,2 49741  53.2172 159.4567 0001721  41.8198 263.9855 15.08851083  3602,6917.847,95.437,540.9019999999998,538.521,0.0
49741.0,STARLINK-3244,PAYLOAD,2022-03-25 00:00:02,15.08829822,0.0001649,53.2172,159.0821,43.5963,355.1798,0.0019088,0.00030213,0.0,0 STARLINK-3244,1 49741U 21115T   22084.00002315  .00030213  00000-0  19088-2 0  9999,2 49741  53.2172 159.0821 0001649  43.5963 355.1798 15.08829822 18397,6917.911,95.438,540.9169999999998,538.636,0.0
49741.0,STARLINK-3244,PAYLOAD,2022-03-25 14:00:01,15.08828204,0.0001864,53.2175,156.4654,39.3201,289.7018,0.0006441,9.974e-05,0.0,0 STARLINK-3244,1 49741U 21115T   22084.58334491  .00009974  00000-0  64410-3 0  9995,2 49741  53.2175 156.4654 0001864  39.3201 289.7018 15.08828204 18482,6917.916,95.438,541.071,538.492,0.0
49741.0,STARLINK-3244,PAYLOAD,2022-03-25 22:00:01,15.08849806,0.000177,53.2176,154.9675,40.211,300.4586,-0.003905,-0.0006192,0.0,0 STARLINK-3244,1 49741U 21115T   22084.91668981 -.00061920  00000-0 -39050-2 0  9998,2 49741  53.2176 154.9675 0001770  40.2110 300.4586 15.08849806  3638,6917.85,95.437,540.94,538.491,0.0
49741.0,STARLINK-3244,PAYLOAD,2022-03-26 06:00:00,15.0882924,0.0001825,53.2178,153.4712,41.76,310.3504,4.2795e-06,-2.2e-06,0.0,0 STARLINK-3244,1 49741U 21115T   22085.25001157 -.00000220  00000-0  42795-5 0  9990,2 49741  53.2178 153.4712 0001825  41.7600 310.3504 15.08829240 18587,6917.913000000001,95.438,541.0409999999998,538.516,0.0
49741.0,STARLINK-3244,PAYLOAD,2022-03-26 14:00:01,15.08805196,0.0002049,53.218,151.9767,37.2423,326.4506,0.0026648,0.00042337,0.0,0 STARLINK-3244,1 49741U 21115T   22085.58334491  .00042337  00000-0  26648-2 0  9996,2 49741  53.2180 151.9767 0002049  37.2423 326.4506 15.08805196  3572,6917.986999999999,95.44,541.269,538.434,0.0
49741.0,STARLINK-3244,PAYLOAD,2022-03-26 22:00:00,15.08834125,0.0001925,53.2182,150.4789,38.8208,336.4454,-0.00025431,-4.333e-05,0.0,0 STARLINK-3244,1 49741U 21115T   22085.91667824 -.00004333  00000-0 -25431-3 0  9998,2 49741  53.2182 150.4789 0001925  38.8208 336.4454 15.08834125  3591,6917.898,95.438,541.095,538.432,0.0
49741.0,STARLINK-3244,PAYLOAD,2022-03-27 14:00:01,15.08829337,0.0002141,53.2186,147.4879,37.4794,0.986,0.0030795,0.0004905,0.0,0 STARLINK-3244,1 49741U 21115T   22086.58334491  .00049050  00000-0  30795-2 0  9994,2 49741  53.2186 147.4879 0002141  37.4794   0.9860 15.08829337 18787,6917.913000000001,95.438,541.259,538.297,0.0
49741.0,STARLINK-3244,PAYLOAD,2022-03-27 22:00:01,15.08861476,0.0002007,53.2188,145.9899,40.421,9.7157,2.6101e-05,1.27e-06,0.0,0 STARLINK-3244,1 49741U 21115T   22086.91668981  .00000127  00000-0  26101-4 0  9995,2 49741  53.2188 145.9899 0002007  40.4210   9.7157 15.08861476  3603,6917.815,95.436,541.068,538.2909999999998,0.0
49741.0,STARLINK-3244,PAYLOAD,2022-03-28 08:00:01,15.08867131,0.0002141,53.2189,144.1202,42.3938,112.2141,-0.0017118,-0.00027449,0.0,0 STARLINK-3244,1 49741U 21115T   22087.33334491 -.00027449  00000-0 -17118-2 0  9992,2 49741  53.2189 144.1202 0002141  42.3938 112.2141 15.08867131 18894,6917.797,95.436,541.144,538.181,0.0
49741.0,STARLINK-3244,PAYLOAD,2022-03-28 14:00:01,15.08841751,0.0002249,53.2189,142.999,39.6948,33.691,0.0013748,0.00021661,0.0,0 STARLINK-3244,1 49741U 21115T   22087.58335648  .00021661  00000-0  13748-2 0  9997,2 49741  53.2189 142.9990 0002249  39.6948  33.6910 15.08841751  3606,6917.875,95.437,541.2959999999998,538.184,0.0
49741.0,STARLINK-3244,PAYLOAD,2022-03-28 22:00:00,15.08834532,0.0002038,53.219,141.5009,42.20399999999999,42.7375,0.00045478,6.956e-05,0.0,0 STARLINK-3244,1 49741U 21115T   22087.91667824  .00006956  00000-0  45478-3 0  9994,2 49741  53.2190 141.5009 0002038  42.2040  42.7375 15.08834532  3574,6917.897,95.438,541.172,538.352,0.0
49741.0,STARLINK-3244,PAYLOAD,2022-03-29 06:00:02,15.08853397,0.0002108,53.219,140.005,44.7609,51.82899999999999,-0.0029218,-0.00046507,0.0,0 STARLINK-3244,1 49741U 21115T   22088.25002315 -.00046507  00000-0 -29218-2 0  9991,2 49741  53.2190 140.0050 0002108  44.7609  51.8290 15.08853397 19035,6917.839,95.437,541.163,538.246,0.0
49741.0,STARLINK-3244,PAYLOAD,2022-03-29 14:00:01,15.08802741,0.0002285,53.2186,138.5101,41.2175,66.9066,0.0033856,0.00053952,0.0,0 STARLINK-3244,1 49741U 21115T   22088.58334491  .00053952  00000-0  33856-2 0  9993,2 49741  53.2186 138.5101 0002285  41.2175  66.9066 15.08802741  3572,6917.994000000002,95.44,541.44,538.279,0.0
49741.0,STARLINK-3244,PAYLOAD,2022-03-29 22:00:00,15.08823812,0.0002096,53.2186,137.0121,45.1684,74.5354,0.0016429,0.00025944,0.0,0 STARLINK-3244,1 49741U 21115T   22088.91667824  .00025944  00000-0  16429-2 0  9996,2 49741  53.2186 137.0121 0002096  45.1684  74.5354 15.08823812 19132,6917.93,95.439,541.245,538.345,0.0
49741.0,STARLINK-3244,PAYLOAD,2022-03-30 14:00:01,15.08833565,0.0002258,53.218,134.0211,41.3992,101.5601,0.00041219,6.277e-05,0.0,0 STARLINK-3244,1 49741U 21115T   22089.58335648  .00006277  00000-0  41219-3 0  9990,2 49741  53.2180 134.0211 0002258  41.3992 101.5601 15.08833565  3565,6917.9,95.438,541.327,538.203,0.0
49741.0,STARLINK-3244,PAYLOAD,2022-03-30 22:00:00,15.08814315,0.0002034,53.2178,132.5232,44.5664,109.9273,0.0018994,0.00030049,0.0,0 STARLINK-3244,1 49741U 21115T   22089.91667824  .00030049  00000-0  18994-2 0  9998,2 49741  53.2178 132.5232 0002034  44.5664 109.9273 15.08814315 19286,6917.959,95.439,541.231,538.4169999999998,0.0
49741.0,STARLINK-3244,PAYLOAD,2022-03-31 14:00:01,15.08836085,0.0002237,53.2173,129.5322,41.2273,136.4453,0.00072223,0.00011224,0.0,0 STARLINK-3244,1 49741U 21115T   22090.58334491  .00011224  00000-0  72223-3 0  9994,2 49741  53.2173 129.5322 0002237  41.2273 136.4453 15.08836085  3592,6917.892,95.438,541.305,538.21,0.0
49741.0,STARLINK-3244,PAYLOAD,2022-03-31 22:00:00,15.08820621,0.0002008,53.2171,128.0339,43.9557,145.3347,0.002208,0.00035009,0.0,0 STARLINK-3244,1 49741U 21115T   22090.91667824  .00035009  00000-0  22080-2 0  9992,2 49741  53.2171 128.0339 0002008  43.9557 145.3347 15.08820621 19432,6917.94,95.439,541.194,538.4159999999998,0.0
49741.0,STARLINK-3244,PAYLOAD,2022-04-01 14:00:01,15.08852466,0.0002186,53.2167,125.0428,39.8264,172.6516,-0.00090975,-0.00014743,0.0,0 STARLINK-3244,1 49741U 21115T   22091.58334491 -.00014743  00000-0 -90975-3 0  9990,2 49741  53.2167 125.0428 0002186  39.8264 172.6516 15.08852466 19533,6917.842,95.437,541.22,538.195,0.0
49741.0,STARLINK-3244,PAYLOAD,2022-04-01 22:00:00,15.08808516,0.0001935,53.2167,123.5444,40.656,183.4421,0.00091109,0.00014229,0.0,0 STARLINK-3244,1 49741U 21115T   22091.91667824  .00014229  00000-0  91109-3 0  9993,2 49741  53.2167 123.5444 0001935  40.6560 183.4421 15.08808516  3573,6917.977,95.44,541.18,538.503,0.0
